H1 CPF 01  gfz 2021 05 03 12  6232 terrasarx 
H2 0702601  6201 31698    2021 05 03 12 59 42 2021 05 08 00 00 42   120 1 1  0 0 0
H9
10 0 59339  56142.000000  0    3920939.276   2034246.958   5276296.567
10 0 59339  56262.000000  0    3376861.596   1508429.048   5801570.208
10 0 59339  56382.000000  0    2764480.579    966392.338   6224826.235
10 0 59339  56502.000000  0    2094314.075    418709.647   6538661.450
10 0 59339  56622.000000  0    1378062.481   -124148.778   6737591.745
10 0 59339  56742.000000  0     628402.218   -652014.484   6818144.448
10 0 59339  56862.000000  0    -141240.404  -1155211.391   6778914.901
10 0 59339  56982.000000  0    -916929.658  -1624732.521   6620588.704
10 0 59339  57102.000000  0   -1684472.039  -2052401.303   6345929.277
10 0 59339  57222.000000  0   -2429673.694  -2431013.326   5959731.738
10 0 59339  57342.000000  0   -3138601.790  -2754458.579   5468746.992
10 0 59339  57462.000000  0   -3797849.425  -3017823.639   4881571.290
10 0 59339  57582.000000  0   -4394794.074  -3217468.606   4208499.607
10 0 59339  57702.000000  0   -4917844.448  -3351077.903   3461348.849
10 0 59339  57822.000000  0   -5356671.678  -3417684.168   2653253.141
10 0 59339  57942.000000  0   -5702420.900  -3417665.510   1798433.403
10 0 59339  58062.000000  0   -5947896.602  -3352715.004    911942.731
10 0 59339  58182.000000  0   -6087715.897  -3225781.664      9394.515
10 0 59339  58302.000000  0   -6118426.806  -3040985.707   -893320.502
10 0 59339  58422.000000  0   -6038587.932  -2803509.670  -1780324.123
10 0 59339  58542.000000  0   -5848805.386  -2519467.434  -2636038.911
10 0 59339  58662.000000  0   -5551728.884  -2195756.378  -3445467.120
10 0 59339  58782.000000  0   -5152007.517  -1839896.256  -4194456.428
10 0 59339  58902.000000  0   -4656206.869  -1459858.864  -4869946.256
10 0 59339  59022.000000  0   -4072690.440  -1063892.881  -5460191.487
10 0 59339  59142.000000  0   -3411467.644   -660347.509  -5954958.945
10 0 59339  59262.000000  0   -2684013.693   -257499.603  -6345693.993
10 0 59339  59382.000000  0   -1903065.490    136612.267  -6625656.779
10 0 59339  59502.000000  0   -1082396.599    514343.256  -6790026.982
10 0 59339  59622.000000  0    -236577.161    868585.625  -6835977.353
10 0 59339  59742.000000  0     619278.895   1192898.945  -6762716.291
10 0 59339  59862.000000  0    1469776.321   1481623.197  -6571501.743
10 0 59339  59982.000000  0    2299510.286   1729976.372  -6265623.342
10 0 59339  60102.000000  0    3093340.525   1934133.187  -5850351.528
10 0 59339  60222.000000  0    3836664.094   2091283.576  -5332854.842
10 0 59339  60342.000000  0    4515682.973   2199671.009  -4722087.975
10 0 59339  60462.000000  0    5117664.267   2258610.059  -4028648.131
10 0 59339  60582.000000  0    5631185.300   2268481.668  -3264600.348
10 0 59339  60702.000000  0    6046358.918   2230706.345  -2443275.725
10 0 59339  60822.000000  0    6355035.613   2147695.827  -1579042.982
10 0 59339  60942.000000  0    6550973.796   2022783.296   -687056.395
10 0 59339  61062.000000  0    6629975.492   1860133.393    217013.622
10 0 59339  61182.000000  0    6589980.591   1664633.748   1117263.340
10 0 59339  61302.000000  0    6431119.793   1441772.138   1997841.690
10 0 59339  61422.000000  0    6155725.030   1197500.744   2843239.426
10 0 59339  61542.000000  0    5768293.042    938091.235   3638570.466
10 0 59339  61662.000000  0    5275405.942    669985.236   4369840.766
10 0 59339  61782.000000  0    4685610.083    399643.601   5024196.757
10 0 59339  61902.000000  0    4009259.163    133398.969   5590152.094
10 0 59339  62022.000000  0    3258321.597   -122686.746   6057787.208
10 0 59339  62142.000000  0    2446159.963   -362954.001   6418916.865
10 0 59339  62262.000000  0    1587288.278   -582265.631   6667227.600
10 0 59339  62382.000000  0     697108.974   -776113.335   6798383.444
10 0 59339  62502.000000  0    -208366.068   -940708.255   6810096.486
10 0 59339  62622.000000  0   -1112803.271  -1073054.031   6702163.157
10 0 59339  62742.000000  0   -1999840.771  -1171001.432   6476466.765
10 0 59339  62862.000000  0   -2853382.459  -1233282.836   6136946.063
10 0 59339  62982.000000  0   -3657889.371  -1259526.710   5689532.683
10 0 59339  63102.000000  0   -4398666.607  -1250253.040   5142054.820
10 0 59339  63222.000000  0   -5062137.949  -1206849.173   4504106.074
10 0 59339  63342.000000  0   -5636102.565  -1131525.376   3786881.460
10 0 59339  63462.000000  0   -6109967.473  -1027251.327   3002983.283
10 0 59339  63582.000000  0   -6474952.103   -897675.112   2166201.590
10 0 59339  63702.000000  0   -6724262.430   -747026.443   1291269.958
10 0 59339  63822.000000  0   -6853225.659   -580006.220    393599.262
10 0 59339  63942.000000  0   -6859381.923   -401665.199   -511001.873
10 0 59339  64062.000000  0   -6742531.961   -217274.693  -1406614.602
10 0 59339  64182.000000  0   -6504737.986    -32192.795  -2277498.441
10 0 59339  64302.000000  0   -6150281.379    148269.653  -3108373.861
10 0 59339  64422.000000  0   -5685575.979    318981.390  -3884696.637
10 0 59339  64542.000000  0   -5119038.536    475117.292  -4592913.623
10 0 59339  64662.000000  0   -4460922.931    612275.666  -5220696.338
10 0 59339  64782.000000  0   -3723122.232    726584.425  -5757148.410
10 0 59339  64902.000000  0   -2918944.092    814792.762  -6192985.071
10 0 59339  65022.000000  0   -2062864.805    874347.156  -6520681.534
10 0 59339  65142.000000  0   -1170267.353    903451.441  -6734592.099
10 0 59339  65262.000000  0    -257166.420    901109.477  -6831036.553
10 0 59339  65382.000000  0     660072.399    867149.499  -6808355.381
10 0 59339  65502.000000  0    1565017.812    802230.138  -6666937.441
10 0 59339  65622.000000  0    2441461.793    707828.180  -6409215.062
10 0 59339  65742.000000  0    3273704.325    586208.291  -6039626.414
10 0 59339  65862.000000  0    4046831.046    440374.848  -5564546.153
10 0 59339  65982.000000  0    4746979.216    274005.868  -4992186.129
10 0 59339  66102.000000  0    5361590.188     91371.484  -4332465.455
10 0 59339  66222.000000  0    5879642.369   -102763.088  -3596848.604
10 0 59339  66342.000000  0    6291858.454   -303247.847  -2798154.753
10 0 59339  66462.000000  0    6590884.290   -504669.676  -1950340.673
10 0 59339  66582.000000  0    6771433.261   -701482.462  -1068257.990
10 0 59339  66702.000000  0    6830391.066   -888142.197   -167390.809
10 0 59339  66822.000000  0    6766878.795  -1059244.351    736421.065
10 0 59339  66942.000000  0    6582271.338  -1209659.945   1627268.540
10 0 59339  67062.000000  0    6280171.005  -1334666.957   2489462.051
10 0 59339  67182.000000  0    5866334.526  -1430072.504   3307817.733
10 0 59339  67302.000000  0    5348557.269  -1492323.397   4067931.203
10 0 59339  67422.000000  0    4736518.008  -1518603.169   4756435.550
10 0 59339  67542.000000  0    4041588.241  -1506911.270   5361237.493
10 0 59339  67662.000000  0    3276611.895  -1456123.523   5871728.760
10 0 59339  67782.000000  0    2455658.809  -1366033.572   6278968.309
10 0 59339  67902.000000  0    1593759.971  -1237374.077   6575832.925
10 0 59339  68022.000000  0     706627.974  -1071817.487   6757136.577
10 0 59339  68142.000000  0    -189632.137   -871955.297   6819715.148
10 0 59339  68262.000000  0   -1078815.040   -641257.320   6762476.828
10 0 59339  68382.000000  0   -1944906.584   -384011.624   6586419.558
10 0 59339  68502.000000  0   -2772370.621   -105245.302   6294614.807
10 0 59339  68622.000000  0   -3546427.483    189372.400   5892158.539
10 0 59339  68742.000000  0   -4253320.708    493642.945   5386088.366
10 0 59339  68862.000000  0   -4880566.728    800965.679   4785266.420
10 0 59339  68982.000000  0   -5417182.930   1104477.170   4100229.917
10 0 59339  69102.000000  0   -5853888.535   1397200.117   3343009.635
10 0 59339  69222.000000  0   -6183274.004   1672198.460   2526920.631
10 0 59339  69342.000000  0   -6399935.969   1922735.084   1666327.366
10 0 59339  69462.000000  0   -6500574.074   2142428.657    776387.017
10 0 59339  69582.000000  0   -6484045.438   2325405.773   -127225.127
10 0 59339  69702.000000  0   -6351374.904   2466443.184  -1028600.581
10 0 59339  69822.000000  0   -6105721.603   2561097.286  -1911886.490
10 0 59339  69942.000000  0   -5752303.260   2605818.206  -2761572.792
10 0 59339  70062.000000  0   -5298278.256   2598044.720  -3562771.510
10 0 59339  70182.000000  0   -4752590.551   2536277.087  -4301480.069
10 0 59339  70302.000000  0   -4125782.798   2420127.439  -4964824.511
10 0 59339  70422.000000  0   -3429782.185   2250346.894  -5541277.788
10 0 59339  70542.000000  0   -2677666.289   2028829.705  -6020850.576
10 0 59339  70662.000000  0   -1883413.044   1758594.366  -6395254.708
10 0 59339  70782.000000  0   -1061638.025   1443741.674  -6658034.662
10 0 59339  70902.000000  0    -227327.933   1089391.576  -6804667.233
10 0 59339  71022.000000  0     604427.232    701600.219  -6832630.296
10 0 59339  71142.000000  0    1418699.806    287258.722  -6741443.197
10 0 59339  71262.000000  0    2200987.607   -146026.907  -6532674.462
10 0 59339  71382.000000  0    2937466.111   -590071.580  -6209917.220
10 0 59339  71502.000000  0    3615229.777  -1036261.321  -5778734.011
10 0 59339  71622.000000  0    4222516.416  -1475715.232  -5246569.959
10 0 59339  71742.000000  0    4748914.527  -1899458.647  -4622636.594
10 0 59339  71862.000000  0    5185547.955  -2298603.969  -3917763.174
10 0 59339  71982.000000  0    5525234.086  -2664534.857  -3144218.543
10 0 59339  72102.000000  0    5762612.581  -2989090.368  -2315504.382
10 0 59339  72222.000000  0    5894239.877  -3264744.714  -1446122.316
10 0 59339  72342.000000  0    5918647.157  -3484778.172   -551320.117
10 0 59339  72462.000000  0    5836359.844  -3643435.278    353179.703
10 0 59339  72582.000000  0    5649877.088  -3736065.633   1251462.458
99
